{
  "type": "FeatureCollection",
  "features": [
    {
      "type": "Feature",
      "properties": {
        "norad_id": 44333,
        "name": "AT&T T-16",
        "group": "intelsat",
        "lat": 0.0006805235953949847,
        "lon": 28.068413286904704,
        "alt_km": 35788.648439644465,
        "timestamp": "2025-12-06T03:35:01.466771+00:00",
        "meta_object_name": "AT&T T-16",
        "meta_object_id": "2019-034A",
        "meta_epoch": "2025-12-04T23:31:09.058080",
        "meta_mean_motion": 1.00271015,
        "meta_eccentricity": 6.555e-05,
        "meta_inclination": 0.032,
        "meta_ra_of_asc_node": 71.7135,
        "meta_arg_of_pericenter": 104.2001,
        "meta_mean_anomaly": 150.0544,
        "meta_ephemeris_type": 0,
        "meta_classification_type": "U",
        "meta_norad_cat_id": 44333,
        "meta_element_set_no": 999,
        "meta_rev_at_epoch": 2368,
        "meta_bstar": 0,
        "meta_mean_motion_dot": -1.02e-06,
        "meta_mean_motion_ddot": 0,
        "tle_line1": "1 44333U 19034A   25338.97996595 -.00000102  00000+0  00000+0 0  9996",
        "tle_line2": "2 44333   0.0320  71.7135 0000655 104.2001 150.0544  1.00271015 23687"
      },
      "geometry": {
        "type": "Point",
        "coordinates": [
          28.068413286904704,
          0.0006805235953949847
        ]
      }
    },
    {
      "type": "Feature",
      "properties": {
        "norad_id": 44476,
        "name": "INTELSAT 39 (IS-39)",
        "group": "intelsat",
        "lat": -0.02753773843275225,
        "lon": -169.11317814667603,
        "alt_km": 35784.70626179168,
        "timestamp": "2025-12-06T03:35:01.466783+00:00",
        "meta_object_name": "INTELSAT 39 (IS-39)",
        "meta_object_id": "2019-049B",
        "meta_epoch": "2025-12-04T23:54:38.661120",
        "meta_mean_motion": 1.00270855,
        "meta_eccentricity": 4.749e-05,
        "meta_inclination": 0.0171,
        "meta_ra_of_asc_node": 328.649,
        "meta_arg_of_pericenter": 184.1586,
        "meta_mean_anomaly": 341.861,
        "meta_ephemeris_type": 0,
        "meta_classification_type": "U",
        "meta_norad_cat_id": 44476,
        "meta_element_set_no": 999,
        "meta_rev_at_epoch": 2318,
        "meta_bstar": 0,
        "meta_mean_motion_dot": 4.6e-07,
        "meta_mean_motion_ddot": 0,
        "tle_line1": "1 44476U 19049B   25338.99628080  .00000046  00000+0  00000+0 0  9999",
        "tle_line2": "2 44476   0.0171 328.6490 0000474 184.1586 341.8610  1.00270855 23181"
      },
      "geometry": {
        "type": "Point",
        "coordinates": [
          -169.11317814667603,
          -0.02753773843275225
        ]
      }
    },
    {
      "type": "Feature",
      "properties": {
        "norad_id": 46114,
        "name": "GALAXY 30 (G-30)",
        "group": "intelsat",
        "lat": 0.021749708879886503,
        "lon": 3.9615632108442673,
        "alt_km": 35790.71421176052,
        "timestamp": "2025-12-06T03:35:01.466795+00:00",
        "meta_object_name": "GALAXY 30 (G-30)",
        "meta_object_id": "2020-056C",
        "meta_epoch": "2025-12-04T23:24:17.216064",
        "meta_mean_motion": 1.00269865,
        "meta_eccentricity": 0.0002477,
        "meta_inclination": 0.0163,
        "meta_ra_of_asc_node": 332.4397,
        "meta_arg_of_pericenter": 277.9975,
        "meta_mean_anomaly": 49.6774,
        "meta_ephemeris_type": 0,
        "meta_classification_type": "U",
        "meta_norad_cat_id": 46114,
        "meta_element_set_no": 999,
        "meta_rev_at_epoch": 1934,
        "meta_bstar": 0,
        "meta_mean_motion_dot": 5e-07,
        "meta_mean_motion_ddot": 0,
        "tle_line1": "1 46114U 20056C   25338.97519926  .00000050  00000+0  00000+0 0  9991",
        "tle_line2": "2 46114   0.0163 332.4397 0002477 277.9975  49.6774  1.00269865 19346"
      },
      "geometry": {
        "type": "Point",
        "coordinates": [
          3.9615632108442673,
          0.021749708879886503
        ]
      }
    },
    {
      "type": "Feature",
      "properties": {
        "norad_id": 54026,
        "name": "GALAXY 33 (G-33)",
        "group": "intelsat",
        "lat": -0.0016389567757525273,
        "lon": -4.038686961690207,
        "alt_km": 35789.408451291194,
        "timestamp": "2025-12-06T03:35:01.466807+00:00",
        "meta_object_name": "GALAXY 33 (G-33)",
        "meta_object_id": "2022-128A",
        "meta_epoch": "2025-12-05T02:47:29.007744",
        "meta_mean_motion": 1.00269533,
        "meta_eccentricity": 0.0002243,
        "meta_inclination": 0.0117,
        "meta_ra_of_asc_node": 23.0859,
        "meta_arg_of_pericenter": 225.7168,
        "meta_mean_anomaly": 94.2515,
        "meta_ephemeris_type": 0,
        "meta_classification_type": "U",
        "meta_norad_cat_id": 54026,
        "meta_element_set_no": 999,
        "meta_rev_at_epoch": 1179,
        "meta_bstar": 0,
        "meta_mean_motion_dot": 9.1e-07,
        "meta_mean_motion_ddot": 0,
        "tle_line1": "1 54026U 22128A   25339.11630796  .00000091  00000+0  00000+0 0  9995",
        "tle_line2": "2 54026   0.0117  23.0859 0002243 225.7168  94.2515  1.00269533 11790"
      },
      "geometry": {
        "type": "Point",
        "coordinates": [
          -4.038686961690207,
          -0.0016389567757525273
        ]
      }
    },
    {
      "type": "Feature",
      "properties": {
        "norad_id": 54027,
        "name": "GALAXY 34 (G-34)",
        "group": "intelsat",
        "lat": 0.02180824527067905,
        "lon": 0.005577567356896781,
        "alt_km": 35789.18009650276,
        "timestamp": "2025-12-06T03:35:01.466819+00:00",
        "meta_object_name": "GALAXY 34 (G-34)",
        "meta_object_id": "2022-128B",
        "meta_epoch": "2025-12-05T02:48:36.399744",
        "meta_mean_motion": 1.00269413,
        "meta_eccentricity": 0.00013695,
        "meta_inclination": 0.0217,
        "meta_ra_of_asc_node": 332.4929,
        "meta_arg_of_pericenter": 271.6425,
        "meta_mean_anomaly": 103.2558,
        "meta_ephemeris_type": 0,
        "meta_classification_type": "U",
        "meta_norad_cat_id": 54027,
        "meta_element_set_no": 999,
        "meta_rev_at_epoch": 1196,
        "meta_bstar": 0,
        "meta_mean_motion_dot": 0,
        "meta_mean_motion_ddot": 0,
        "tle_line1": "1 54027U 22128B   25339.11708796  .00000000  00000+0  00000+0 0  9992",
        "tle_line2": "2 54027   0.0217 332.4929 0001369 271.6425 103.2558  1.00269413 11965"
      },
      "geometry": {
        "type": "Point",
        "coordinates": [
          0.005577567356896781,
          0.02180824527067905
        ]
      }
    },
    {
      "type": "Feature",
      "properties": {
        "norad_id": 54243,
        "name": "GALAXY 31 (G-31)",
        "group": "intelsat",
        "lat": 0.00030067610940691944,
        "lon": 7.959781644355833,
        "alt_km": 35788.05540438176,
        "timestamp": "2025-12-06T03:35:01.466831+00:00",
        "meta_object_name": "GALAXY 31 (G-31)",
        "meta_object_id": "2022-153A",
        "meta_epoch": "2025-12-04T23:25:17.120640",
        "meta_mean_motion": 1.0027049,
        "meta_eccentricity": 0.00019867,
        "meta_inclination": 0.0144,
        "meta_ra_of_asc_node": 52.8904,
        "meta_arg_of_pericenter": 213.6751,
        "meta_mean_anomaly": 37.7987,
        "meta_ephemeris_type": 0,
        "meta_classification_type": "U",
        "meta_norad_cat_id": 54243,
        "meta_element_set_no": 999,
        "meta_rev_at_epoch": 518,
        "meta_bstar": 0,
        "meta_mean_motion_dot": 2.6e-07,
        "meta_mean_motion_ddot": 0,
        "tle_line1": "1 54243U 22153A   25338.97589260  .00000026  00000+0  00000+0 0  9994",
        "tle_line2": "2 54243   0.0144  52.8904 0001986 213.6751  37.7987  1.00270490  5184"
      },
      "geometry": {
        "type": "Point",
        "coordinates": [
          7.959781644355833,
          0.00030067610940691944
        ]
      }
    },
    {
      "type": "Feature",
      "properties": {
        "norad_id": 54244,
        "name": "GALAXY 32 (G-32)",
        "group": "intelsat",
        "lat": 0.030745560713091404,
        "lon": 38.00405234569442,
        "alt_km": 35786.99149569022,
        "timestamp": "2025-12-06T03:35:01.466843+00:00",
        "meta_object_name": "GALAXY 32 (G-32)",
        "meta_object_id": "2022-153B",
        "meta_epoch": "2025-12-04T13:17:37.099104",
        "meta_mean_motion": 1.00275803,
        "meta_eccentricity": 0.00027886,
        "meta_inclination": 0.0107,
        "meta_ra_of_asc_node": 343.0801,
        "meta_arg_of_pericenter": 315.5746,
        "meta_mean_anomaly": 243.3847,
        "meta_ephemeris_type": 0,
        "meta_classification_type": "U",
        "meta_norad_cat_id": 54244,
        "meta_element_set_no": 999,
        "meta_rev_at_epoch": 1119,
        "meta_bstar": 0,
        "meta_mean_motion_dot": -1.6e-06,
        "meta_mean_motion_ddot": 0,
        "tle_line1": "1 54244U 22153B   25338.55390161 -.00000160  00000+0  00000+0 0  9999",
        "tle_line2": "2 54244   0.0107 343.0801 0002788 315.5746 243.3847  1.00275803 11193"
      },
      "geometry": {
        "type": "Point",
        "coordinates": [
          38.00405234569442,
          0.030745560713091404
        ]
      }
    }
  ]
}